CCSDS_OMM_VERS = 2.0
CREATION_DATE  = 
ORIGINATOR     = 

OBJECT_NAME    = TIANQI-39
OBJECT_ID      = 2026-010C
CENTER_NAME    = EARTH
REF_FRAME      = TEME
TIME_SYSTEM    = UTC
MEAN_ELEMENT_THEORY = SGP/SGP4

EPOCH          = 2026-02-03T11:18:04.312800
MEAN_MOTION    = 14.13050473
ECCENTRICITY   = .00165538
INCLINATION    = 44.9846
RA_OF_ASC_NODE = 318.5504
ARG_OF_PERICENTER = 57.8536
MEAN_ANOMALY   = 302.3906

EPHEMERIS_TYPE = 0
CLASSIFICATION_TYPE = U
NORAD_CAT_ID   = 67478
ELEMENT_SET_NO = 999
REV_AT_EPOCH   = 264
BSTAR          = .30683113E-3
MEAN_MOTION_DOT = .444E-5
MEAN_MOTION_DDOT = 0

CCSDS_OMM_VERS = 2.0
CREATION_DATE  = 
ORIGINATOR     = 

OBJECT_NAME    = TIANQI-40
OBJECT_ID      = 2026-010D
CENTER_NAME    = EARTH
REF_FRAME      = TEME
TIME_SYSTEM    = UTC
MEAN_ELEMENT_THEORY = SGP/SGP4

EPOCH          = 2026-02-03T12:56:09.696768
MEAN_MOTION    = 14.13799218
ECCENTRICITY   = .00123806
INCLINATION    = 44.9840
RA_OF_ASC_NODE = 318.2119
ARG_OF_PERICENTER = 58.9453
MEAN_ANOMALY   = 301.2599

EPHEMERIS_TYPE = 0
CLASSIFICATION_TYPE = U
NORAD_CAT_ID   = 67479
ELEMENT_SET_NO = 999
REV_AT_EPOCH   = 265
BSTAR          = .33607842E-3
MEAN_MOTION_DOT = .508E-5
MEAN_MOTION_DDOT = 0

CCSDS_OMM_VERS = 2.0
CREATION_DATE  = 
ORIGINATOR     = 

OBJECT_NAME    = SZ-20 MODULE
OBJECT_ID      = 2025-082C
CENTER_NAME    = EARTH
REF_FRAME      = TEME
TIME_SYSTEM    = UTC
MEAN_ELEMENT_THEORY = SGP/SGP4

EPOCH          = 2026-02-03T03:06:59.028768
MEAN_MOTION    = 15.62224056
ECCENTRICITY   = .00061301
INCLINATION    = 41.4790
RA_OF_ASC_NODE = 58.0232
ARG_OF_PERICENTER = 83.9618
MEAN_ANOMALY   = 276.1920

EPHEMERIS_TYPE = 0
CLASSIFICATION_TYPE = U
NORAD_CAT_ID   = 67481
ELEMENT_SET_NO = 999
REV_AT_EPOCH   = 27221
BSTAR          = .25566268E-3
MEAN_MOTION_DOT = .2291E-3
MEAN_MOTION_DDOT = 0

CCSDS_OMM_VERS = 2.0
CREATION_DATE  = 
ORIGINATOR     = 

OBJECT_NAME    = ION SCV-021
OBJECT_ID      = 2025-276DT
CENTER_NAME    = EARTH
REF_FRAME      = TEME
TIME_SYSTEM    = UTC
MEAN_ELEMENT_THEORY = SGP/SGP4

EPOCH          = 2026-02-03T04:28:21.905760
MEAN_MOTION    = 14.97380347
ECCENTRICITY   = .0011491
INCLINATION    = 97.5400
RA_OF_ASC_NODE = 109.5002
ARG_OF_PERICENTER = 211.3853
MEAN_ANOMALY   = 148.6685

EPHEMERIS_TYPE = 0
CLASSIFICATION_TYPE = U
NORAD_CAT_ID   = 67483
ELEMENT_SET_NO = 999
REV_AT_EPOCH   = 255
BSTAR          = .99302135E-4
MEAN_MOTION_DOT = .1099E-4
MEAN_MOTION_DDOT = 0

CCSDS_OMM_VERS = 2.0
CREATION_DATE  = 
ORIGINATOR     = 

OBJECT_NAME    = STARLINK-36551
OBJECT_ID      = 2026-012A
CENTER_NAME    = EARTH
REF_FRAME      = TEME
TIME_SYSTEM    = UTC
MEAN_ELEMENT_THEORY = SGP/SGP4

EPOCH          = 2026-02-03T14:00:01.999872
MEAN_MOTION    = 15.82424264
ECCENTRICITY   = .0001223
INCLINATION    = 42.9966
RA_OF_ASC_NODE = 150.5585
ARG_OF_PERICENTER = 284.5625
MEAN_ANOMALY   = 133.5186

EPHEMERIS_TYPE = 0
CLASSIFICATION_TYPE = U
NORAD_CAT_ID   = 67493
ELEMENT_SET_NO = 999
REV_AT_EPOCH   = 358
BSTAR          = -.88215429E-2
MEAN_MOTION_DOT = -.1648411E-1
MEAN_MOTION_DDOT = 0

CCSDS_OMM_VERS = 2.0
CREATION_DATE  = 
ORIGINATOR     = 

OBJECT_NAME    = STARLINK-36396
OBJECT_ID      = 2026-012B
CENTER_NAME    = EARTH
REF_FRAME      = TEME
TIME_SYSTEM    = UTC
MEAN_ELEMENT_THEORY = SGP/SGP4

EPOCH          = 2026-02-03T14:00:01.999872
MEAN_MOTION    = 15.71927561
ECCENTRICITY   = .00014482
INCLINATION    = 42.9997
RA_OF_ASC_NODE = 150.6696
ARG_OF_PERICENTER = 281.3551
MEAN_ANOMALY   = 92.2032

EPHEMERIS_TYPE = 0
CLASSIFICATION_TYPE = U
NORAD_CAT_ID   = 67494
ELEMENT_SET_NO = 999
REV_AT_EPOCH   = 358
BSTAR          = -.21042877E-1
MEAN_MOTION_DOT = -.2476803E-1
MEAN_MOTION_DDOT = 0

CCSDS_OMM_VERS = 2.0
CREATION_DATE  = 
ORIGINATOR     = 

OBJECT_NAME    = STARLINK-36550
OBJECT_ID      = 2026-012C
CENTER_NAME    = EARTH
REF_FRAME      = TEME
TIME_SYSTEM    = UTC
MEAN_ELEMENT_THEORY = SGP/SGP4

EPOCH          = 2026-02-03T14:00:01.999872
MEAN_MOTION    = 15.78524301
ECCENTRICITY   = .00013414
INCLINATION    = 42.9971
RA_OF_ASC_NODE = 150.5537
ARG_OF_PERICENTER = 284.8503
MEAN_ANOMALY   = 135.1540

EPHEMERIS_TYPE = 0
CLASSIFICATION_TYPE = U
NORAD_CAT_ID   = 67495
ELEMENT_SET_NO = 999
REV_AT_EPOCH   = 358
BSTAR          = -.12342937E-1
MEAN_MOTION_DOT = -.1924916E-1
MEAN_MOTION_DDOT = 0

CCSDS_OMM_VERS = 2.0
CREATION_DATE  = 
ORIGINATOR     = 

OBJECT_NAME    = STARLINK-36534
OBJECT_ID      = 2026-012D
CENTER_NAME    = EARTH
REF_FRAME      = TEME
TIME_SYSTEM    = UTC
MEAN_ELEMENT_THEORY = SGP/SGP4

EPOCH          = 2026-02-03T14:00:01.999872
MEAN_MOTION    = 15.81606494
ECCENTRICITY   = .00016139
INCLINATION    = 42.9964
RA_OF_ASC_NODE = 150.5195
ARG_OF_PERICENTER = 291.9528
MEAN_ANOMALY   = 141.5711

EPHEMERIS_TYPE = 0
CLASSIFICATION_TYPE = U
NORAD_CAT_ID   = 67496
ELEMENT_SET_NO = 999
REV_AT_EPOCH   = 352
BSTAR          = -.10022788E-1
MEAN_MOTION_DOT = -.1819175E-1
MEAN_MOTION_DDOT = 0

CCSDS_OMM_VERS = 2.0
CREATION_DATE  = 
ORIGINATOR     = 

OBJECT_NAME    = STARLINK-36555
OBJECT_ID      = 2026-012E
CENTER_NAME    = EARTH
REF_FRAME      = TEME
TIME_SYSTEM    = UTC
MEAN_ELEMENT_THEORY = SGP/SGP4

EPOCH          = 2026-02-03T14:00:01.999872
MEAN_MOTION    = 15.81653304
ECCENTRICITY   = .00012473
INCLINATION    = 42.9964
RA_OF_ASC_NODE = 150.5315
ARG_OF_PERICENTER = 273.9347
MEAN_ANOMALY   = 154.8953

EPHEMERIS_TYPE = 0
CLASSIFICATION_TYPE = U
NORAD_CAT_ID   = 67497
ELEMENT_SET_NO = 999
REV_AT_EPOCH   = 358
BSTAR          = -.10780726E-1
MEAN_MOTION_DOT = -.1941826E-1
MEAN_MOTION_DDOT = 0

CCSDS_OMM_VERS = 2.0
CREATION_DATE  = 
ORIGINATOR     = 

OBJECT_NAME    = STARLINK-36081
OBJECT_ID      = 2026-012F
CENTER_NAME    = EARTH
REF_FRAME      = TEME
TIME_SYSTEM    = UTC
MEAN_ELEMENT_THEORY = SGP/SGP4

EPOCH          = 2026-02-03T14:00:01.999872
MEAN_MOTION    = 15.78034905
ECCENTRICITY   = .00013126
INCLINATION    = 42.9975
RA_OF_ASC_NODE = 150.5224
ARG_OF_PERICENTER = 283.7541
MEAN_ANOMALY   = 148.5925

EPHEMERIS_TYPE = 0
CLASSIFICATION_TYPE = U
NORAD_CAT_ID   = 67498
ELEMENT_SET_NO = 999
REV_AT_EPOCH   = 352
BSTAR          = -.12559046E-1
MEAN_MOTION_DOT = -.1916595E-1
MEAN_MOTION_DDOT = 0

CCSDS_OMM_VERS = 2.0
CREATION_DATE  = 
ORIGINATOR     = 

OBJECT_NAME    = STARLINK-36558
OBJECT_ID      = 2026-012G
CENTER_NAME    = EARTH
REF_FRAME      = TEME
TIME_SYSTEM    = UTC
MEAN_ELEMENT_THEORY = SGP/SGP4

EPOCH          = 2026-02-03T14:00:01.999872
MEAN_MOTION    = 15.78018353
ECCENTRICITY   = .00014519
INCLINATION    = 42.9974
RA_OF_ASC_NODE = 150.5155
ARG_OF_PERICENTER = 290.9399
MEAN_ANOMALY   = 144.2452

EPHEMERIS_TYPE = 0
CLASSIFICATION_TYPE = U
NORAD_CAT_ID   = 67499
ELEMENT_SET_NO = 999
REV_AT_EPOCH   = 358
BSTAR          = -.1259771E-1
MEAN_MOTION_DOT = -.192058E-1
MEAN_MOTION_DDOT = 0

CCSDS_OMM_VERS = 2.0
CREATION_DATE  = 
ORIGINATOR     = 

OBJECT_NAME    = STARLINK-36557
OBJECT_ID      = 2026-012H
CENTER_NAME    = EARTH
REF_FRAME      = TEME
TIME_SYSTEM    = UTC
MEAN_ELEMENT_THEORY = SGP/SGP4

EPOCH          = 2026-02-03T14:00:01.999872
MEAN_MOTION    = 15.82006218
ECCENTRICITY   = .00011124
INCLINATION    = 42.9966
RA_OF_ASC_NODE = 150.4857
ARG_OF_PERICENTER = 267.4630
MEAN_ANOMALY   = 179.3918

EPHEMERIS_TYPE = 0
CLASSIFICATION_TYPE = U
NORAD_CAT_ID   = 67500
ELEMENT_SET_NO = 999
REV_AT_EPOCH   = 358
BSTAR          = .31812387E-4
MEAN_MOTION_DOT = .6168E-4
MEAN_MOTION_DDOT = 0

