TIANQI-39               
1 67478U 26010C   26034.47088325  .00000444  00000+0  30683-3 0  9997
2 67478  44.9846 318.5504 0016553  57.8536 302.3906 14.13050473  2642
TIANQI-40               
1 67479U 26010D   26034.53900112  .00000508  00000+0  33608-3 0  9993
2 67479  44.9840 318.2119 0012380  58.9453 301.2599 14.13799218  2654
SZ-20 MODULE            
1 67481U 25082C   26034.12984987  .00022910  00000+0  25566-3 0  9996
2 67481  41.4790  58.0232 0006130  83.9618 276.1920 15.62224056272212
ION SCV-021             
1 67483U 25276DT  26034.18636465  .00001099  00000+0  99302-4 0  9999
2 67483  97.5400 109.5002 0011491 211.3853 148.6685 14.97380347  2557
STARLINK-36551          
1 67493U 26012A   26034.58335648 -.01648411  00000+0 -88215-2 0  9999
2 67493  42.9966 150.5585 0001223 284.5625 133.5186 15.82424264  3587
STARLINK-36396          
1 67494U 26012B   26034.58335648 -.02476803  00000+0 -21043-1 0  9990
2 67494  42.9997 150.6696 0001448 281.3551  92.2032 15.71927561  3585
STARLINK-36550          
1 67495U 26012C   26034.58335648 -.01924916  00000+0 -12343-1 0  9996
2 67495  42.9971 150.5537 0001341 284.8503 135.1540 15.78524301  3581
STARLINK-36534          
1 67496U 26012D   26034.58335648 -.01819175  00000+0 -10023-1 0  9990
2 67496  42.9964 150.5195 0001613 291.9528 141.5711 15.81606494  3525
STARLINK-36555          
1 67497U 26012E   26034.58335648 -.01941826  00000+0 -10781-1 0  9991
2 67497  42.9964 150.5315 0001247 273.9347 154.8953 15.81653304  3585
STARLINK-36081          
1 67498U 26012F   26034.58335648 -.01916595  00000+0 -12559-1 0  9992
2 67498  42.9975 150.5224 0001312 283.7541 148.5925 15.78034905  3524
STARLINK-36558          
1 67499U 26012G   26034.58335648 -.01920580  00000+0 -12598-1 0  9995
2 67499  42.9974 150.5155 0001451 290.9399 144.2452 15.78018353  3585
STARLINK-36557          
1 67500U 26012H   26034.58335648  .00006168  00000+0  31812-4 0  9995
2 67500  42.9966 150.4857 0001112 267.4630 179.3918 15.82006218  3586
